[{"OBJECT_NAME":"LEMUR-2-ANDIS","OBJECT_ID":"2017-042P","EPOCH":"2026-03-09T13:25:33.116448","MEAN_MOTION":15.30557934,"ECCENTRICITY":0.0009101,"INCLINATION":97.3659,"RA_OF_ASC_NODE":249.795,"ARG_OF_PERICENTER":4.3248,"MEAN_ANOMALY":355.807,"EPHEMERIS_TYPE":0,"CLASSIFICATION_TYPE":"U","NORAD_CAT_ID":42838,"ELEMENT_SET_NO":999,"REV_AT_EPOCH":47319,"BSTAR":0.00079875,"MEAN_MOTION_DOT":0.00023598,"MEAN_MOTION_DDOT":0},{"OBJECT_NAME":"STARLINK-34477","OBJECT_ID":"2025-133R","EPOCH":"2026-03-09T13:04:05.060064","MEAN_MOTION":15.30205457,"ECCENTRICITY":0.00011008,"INCLINATION":53.1576,"RA_OF_ASC_NODE":117.649,"ARG_OF_PERICENTER":82.7412,"MEAN_ANOMALY":277.3713,"EPHEMERIS_TYPE":0,"CLASSIFICATION_TYPE":"U","NORAD_CAT_ID":64487,"ELEMENT_SET_NO":999,"REV_AT_EPOCH":4115,"BSTAR":0.0015111991,"MEAN_MOTION_DOT":0.00044675,"MEAN_MOTION_DDOT":0}]
