LEMUR-2-ANDIS           
1 42838U 17042P   26068.55941107  .00023598  00000+0  79875-3 0  9998
2 42838  97.3659 249.7950 0009101   4.3248 355.8070 15.30557934473198
STARLINK-34477          
1 64487U 25133R   26068.54450301  .00044675  00000+0  15112-2 0  9994
2 64487  53.1576 117.6490 0001100  82.7412 277.3713 15.30205457 41155
